[{"OBJECT_NAME":"STARLINK-4026","OBJECT_ID":"2022-052C","EPOCH":"2026-03-09T20:35:49.167744","MEAN_MOTION":15.08837616,"ECCENTRICITY":0.00013388,"INCLINATION":53.2155,"RA_OF_ASC_NODE":278.3676,"ARG_OF_PERICENTER":87.3603,"MEAN_ANOMALY":272.7542,"EPHEMERIS_TYPE":0,"CLASSIFICATION_TYPE":"U","NORAD_CAT_ID":52600,"ELEMENT_SET_NO":999,"REV_AT_EPOCH":21168,"BSTAR":-9.287864e-6,"MEAN_MOTION_DOT":-4.36e-6,"MEAN_MOTION_DDOT":0},{"OBJECT_NAME":"RAPIDEYE 2","OBJECT_ID":"2008-040A","EPOCH":"2026-03-09T16:28:01.823808","MEAN_MOTION":15.04945954,"ECCENTRICITY":0.00177122,"INCLINATION":97.4373,"RA_OF_ASC_NODE":102.2221,"ARG_OF_PERICENTER":194.2548,"MEAN_ANOMALY":165.8182,"EPHEMERIS_TYPE":0,"CLASSIFICATION_TYPE":"U","NORAD_CAT_ID":33312,"ELEMENT_SET_NO":999,"REV_AT_EPOCH":95100,"BSTAR":0.0001818221,"MEAN_MOTION_DOT":2.525e-5,"MEAN_MOTION_DDOT":0}]
